{
  "type": "FeatureCollection",
  "features": [
    {
      "type": "Feature",
      "properties": {
        "norad_id": 66530,
        "name": "STARLINK-35961",
        "group": "last-30-days",
        "lat": 2.6885692284092637,
        "lon": -83.09650051658684,
        "alt_km": 353.61418056244656,
        "timestamp": "2025-12-04T23:34:04.491128+00:00",
        "meta_object_name": "STARLINK-35961",
        "meta_object_id": "2025-265Q",
        "meta_epoch": "2025-12-04T18:00:02.000160",
        "meta_mean_motion": 15.72741717,
        "meta_eccentricity": 0.000142,
        "meta_inclination": 42.9999,
        "meta_ra_of_asc_node": 101.194,
        "meta_arg_of_pericenter": 281.4918,
        "meta_mean_anomaly": 19.884,
        "meta_ephemeris_type": 0,
        "meta_classification_type": "U",
        "meta_norad_cat_id": 66530,
        "meta_element_set_no": 999,
        "meta_rev_at_epoch": 371,
        "meta_bstar": -0.015,
        "meta_mean_motion_dot": -0.01823566,
        "meta_mean_motion_ddot": 0,
        "tle_line1": "1 66530U 25265Q   25338.75002315 -.01823566  00000+0 -15000-1 0  9993",
        "tle_line2": "2 66530  42.9999 101.1940 0001420 281.4918  19.8840 15.72741717  3713"
      },
      "geometry": {
        "type": "Point",
        "coordinates": [
          -83.09650051658684,
          2.6885692284092637
        ]
      }
    },
    {
      "type": "Feature",
      "properties": {
        "norad_id": 66531,
        "name": "STARLINK-35960",
        "group": "last-30-days",
        "lat": 1.384671975394487,
        "lon": -81.69953440552098,
        "alt_km": 353.69536510085436,
        "timestamp": "2025-12-04T23:34:04.491139+00:00",
        "meta_object_name": "STARLINK-35960",
        "meta_object_id": "2025-265R",
        "meta_epoch": "2025-12-04T18:00:02.000160",
        "meta_mean_motion": 15.727441,
        "meta_eccentricity": 0.0001581,
        "meta_inclination": 42.9999,
        "meta_ra_of_asc_node": 101.1888,
        "meta_arg_of_pericenter": 277.6115,
        "meta_mean_anomaly": 25.6788,
        "meta_ephemeris_type": 0,
        "meta_classification_type": "U",
        "meta_norad_cat_id": 66531,
        "meta_element_set_no": 999,
        "meta_rev_at_epoch": 371,
        "meta_bstar": -0.015015,
        "meta_mean_motion_dot": -0.01825462,
        "meta_mean_motion_ddot": 0,
        "tle_line1": "1 66531U 25265R   25338.75002315 -.01825462  00000+0 -15015-1 0  9997",
        "tle_line2": "2 66531  42.9999 101.1888 0001581 277.6115  25.6788 15.72744100  3714"
      },
      "geometry": {
        "type": "Point",
        "coordinates": [
          -81.69953440552098,
          1.384671975394487
        ]
      }
    },
    {
      "type": "Feature",
      "properties": {
        "norad_id": 66532,
        "name": "STARLINK-35914",
        "group": "last-30-days",
        "lat": 0.07433371458085661,
        "lon": -80.2976861121555,
        "alt_km": 353.7565182205062,
        "timestamp": "2025-12-04T23:34:04.491149+00:00",
        "meta_object_name": "STARLINK-35914",
        "meta_object_id": "2025-265S",
        "meta_epoch": "2025-12-04T18:00:02.000160",
        "meta_mean_motion": 15.72745066,
        "meta_eccentricity": 0.0001373,
        "meta_inclination": 42.9998,
        "meta_ra_of_asc_node": 101.184,
        "meta_arg_of_pericenter": 275.0973,
        "meta_mean_anomaly": 30.1127,
        "meta_ephemeris_type": 0,
        "meta_classification_type": "U",
        "meta_norad_cat_id": 66532,
        "meta_element_set_no": 999,
        "meta_rev_at_epoch": 371,
        "meta_bstar": -0.015039,
        "meta_mean_motion_dot": -0.01827856,
        "meta_mean_motion_ddot": 0,
        "tle_line1": "1 66532U 25265S   25338.75002315 -.01827856  00000+0 -15039-1 0  9993",
        "tle_line2": "2 66532  42.9998 101.1840 0001373 275.0973  30.1127 15.72745066  3715"
      },
      "geometry": {
        "type": "Point",
        "coordinates": [
          -80.2976861121555,
          0.07433371458085661
        ]
      }
    },
    {
      "type": "Feature",
      "properties": {
        "norad_id": 66533,
        "name": "STARLINK-35707",
        "group": "last-30-days",
        "lat": -1.2309667868625704,
        "lon": -78.90107373512859,
        "alt_km": 354.0268402350948,
        "timestamp": "2025-12-04T23:34:04.491159+00:00",
        "meta_object_name": "STARLINK-35707",
        "meta_object_id": "2025-265T",
        "meta_epoch": "2025-12-04T18:00:02.000160",
        "meta_mean_motion": 15.72744305,
        "meta_eccentricity": 0.0001411,
        "meta_inclination": 42.9999,
        "meta_ra_of_asc_node": 101.1795,
        "meta_arg_of_pericenter": 281.798,
        "meta_mean_anomaly": 25.327,
        "meta_ephemeris_type": 0,
        "meta_classification_type": "U",
        "meta_norad_cat_id": 66533,
        "meta_element_set_no": 999,
        "meta_rev_at_epoch": 371,
        "meta_bstar": -0.015022,
        "meta_mean_motion_dot": -0.01826018,
        "meta_mean_motion_ddot": 0,
        "tle_line1": "1 66533U 25265T   25338.75002315 -.01826018  00000+0 -15022-1 0  9995",
        "tle_line2": "2 66533  42.9999 101.1795 0001411 281.7980  25.3270 15.72744305  3711"
      },
      "geometry": {
        "type": "Point",
        "coordinates": [
          -78.90107373512859,
          -1.2309667868625704
        ]
      }
    },
    {
      "type": "Feature",
      "properties": {
        "norad_id": 66534,
        "name": "STARLINK-35976",
        "group": "last-30-days",
        "lat": -2.5351587282369947,
        "lon": -77.50341451094361,
        "alt_km": 354.2088640772072,
        "timestamp": "2025-12-04T23:34:04.491169+00:00",
        "meta_object_name": "STARLINK-35976",
        "meta_object_id": "2025-265U",
        "meta_epoch": "2025-12-04T18:00:02.000160",
        "meta_mean_motion": 15.72744018,
        "meta_eccentricity": 0.0001602,
        "meta_inclination": 43.0002,
        "meta_ra_of_asc_node": 101.1751,
        "meta_arg_of_pericenter": 283.1593,
        "meta_mean_anomaly": 25.8821,
        "meta_ephemeris_type": 0,
        "meta_classification_type": "U",
        "meta_norad_cat_id": 66534,
        "meta_element_set_no": 999,
        "meta_rev_at_epoch": 371,
        "meta_bstar": -0.015011,
        "meta_mean_motion_dot": -0.01824974,
        "meta_mean_motion_ddot": 0,
        "tle_line1": "1 66534U 25265U   25338.75002315 -.01824974  00000+0 -15011-1 0  9993",
        "tle_line2": "2 66534  43.0002 101.1751 0001602 283.1593  25.8821 15.72744018  3717"
      },
      "geometry": {
        "type": "Point",
        "coordinates": [
          -77.50341451094361,
          -2.5351587282369947
        ]
      }
    },
    {
      "type": "Feature",
      "properties": {
        "norad_id": 66535,
        "name": "STARLINK-35514",
        "group": "last-30-days",
        "lat": -3.8401151833578413,
        "lon": -76.10125319846078,
        "alt_km": 354.33241620417084,
        "timestamp": "2025-12-04T23:34:04.491181+00:00",
        "meta_object_name": "STARLINK-35514",
        "meta_object_id": "2025-265V",
        "meta_epoch": "2025-12-04T18:00:02.000160",
        "meta_mean_motion": 15.72744341,
        "meta_eccentricity": 0.0001556,
        "meta_inclination": 43.0002,
        "meta_ra_of_asc_node": 101.1699,
        "meta_arg_of_pericenter": 283.5097,
        "meta_mean_anomaly": 27.4487,
        "meta_ephemeris_type": 0,
        "meta_classification_type": "U",
        "meta_norad_cat_id": 66535,
        "meta_element_set_no": 999,
        "meta_rev_at_epoch": 371,
        "meta_bstar": -0.015012,
        "meta_mean_motion_dot": -0.01825116,
        "meta_mean_motion_ddot": 0,
        "tle_line1": "1 66535U 25265V   25338.75002315 -.01825116  00000+0 -15012-1 0  9994",
        "tle_line2": "2 66535  43.0002 101.1699 0001556 283.5097  27.4487 15.72744341  3715"
      },
      "geometry": {
        "type": "Point",
        "coordinates": [
          -76.10125319846078,
          -3.8401151833578413
        ]
      }
    },
    {
      "type": "Feature",
      "properties": {
        "norad_id": 66536,
        "name": "STARLINK-35640",
        "group": "last-30-days",
        "lat": -5.1446256526961545,
        "lon": -74.69194935931876,
        "alt_km": 354.41651940797874,
        "timestamp": "2025-12-04T23:34:04.491191+00:00",
        "meta_object_name": "STARLINK-35640",
        "meta_object_id": "2025-265W",
        "meta_epoch": "2025-12-04T18:00:02.000160",
        "meta_mean_motion": 15.72743385,
        "meta_eccentricity": 0.0001277,
        "meta_inclination": 43.0002,
        "meta_ra_of_asc_node": 101.1655,
        "meta_arg_of_pericenter": 282.9067,
        "meta_mean_anomaly": 29.97,
        "meta_ephemeris_type": 0,
        "meta_classification_type": "U",
        "meta_norad_cat_id": 66536,
        "meta_element_set_no": 999,
        "meta_rev_at_epoch": 369,
        "meta_bstar": -0.015016,
        "meta_mean_motion_dot": -0.01825224,
        "meta_mean_motion_ddot": 0,
        "tle_line1": "1 66536U 25265W   25338.75002315 -.01825224  00000+0 -15016-1 0  9999",
        "tle_line2": "2 66536  43.0002 101.1655 0001277 282.9067  29.9700 15.72743385  3697"
      },
      "geometry": {
        "type": "Point",
        "coordinates": [
          -74.69194935931876,
          -5.1446256526961545
        ]
      }
    }
  ]
}